NORAD_CAT_ID,OBJECT_NAME,OBJECT_TYPE,EPOCH,MEAN_MOTION,ECCENTRICITY,INCLINATION,RA_OF_ASC_NODE,ARG_OF_PERICENTER,MEAN_ANOMALY,BSTAR,MEAN_MOTION_DOT,MEAN_MOTION_DDOT,TLE_LINE0,TLE_LINE1,TLE_LINE2,SEMIMAJOR_AXIS,PERIOD,APOGEE,PERIGEE,DECAYED
52851.0,STARLINK-3809,PAYLOAD,2022-11-18 22:35:50,15.08839513,0.0002621,53.2187,41.4199,25.6192,334.4929,0.00010201,1.335e-05,0.0,0 STARLINK-3809,1 52851U 22062X   22322.94155425  .00001335  00000-0  10201-3 0  9998,2 52851  53.2187  41.4199 0002621  25.6192 334.4929 15.08839513 24231,6917.882,95.438,541.56,537.934,0.0
52851.0,STARLINK-3809,PAYLOAD,2022-11-19 11:18:54,15.08850486,0.0002555,53.2181,39.0416,23.1101,337.0005,8.664399999999999e-05,1.091e-05,0.0,0 STARLINK-3809,1 52851U 22062X   22323.47146582  .00001091  00000-0  86644-4 0  9995,2 52851  53.2181  39.0416 0002555  23.1101 337.0005 15.08850486 23829,6917.848000000001,95.437,541.481,537.946,0.0
52851.0,STARLINK-3809,PAYLOAD,2022-11-19 14:29:41,15.08844445,0.0002554,53.2177,38.4479,22.4551,337.6553,9.3254e-05,1.196e-05,0.0,0 STARLINK-3809,1 52851U 22062X   22323.60394910  .00001196  00000-0  93254-4 0  9991,2 52851  53.2177  38.4479 0002554  22.4551 337.6553 15.08844445 23840,6917.8669999999975,95.437,541.499,537.965,0.0
52851.0,STARLINK-3809,PAYLOAD,2022-11-20 04:48:09,15.08842314,0.0002856,53.2195,35.7721,21.8875,338.2238,7.8069e-05,9.54e-06,0.0,0 STARLINK-3809,1 52851U 22062X   22324.20011096  .00000954  00000-0  78069-4 0  9997,2 52851  53.2195  35.7721 0002856  21.8875 338.2238 15.08842314 24422,6917.873000000001,95.437,541.714,537.763,0.0
52851.0,STARLINK-3809,PAYLOAD,2022-11-20 11:09:42,15.08840554,0.0002622,53.2188,34.5805,24.1033,336.0081,6.6186e-05,7.65e-06,0.0,0 STARLINK-3809,1 52851U 22062X   22324.46507253  .00000765  00000-0  66186-4 0  9997,2 52851  53.2188  34.5805 0002622  24.1033 336.0081 15.08840554 23972,6917.879,95.438,541.558,537.93,0.0
52851.0,STARLINK-3809,PAYLOAD,2022-11-20 19:06:37,15.08844794,0.0002723999999999,53.2191,33.0941,24.7681,335.3442,9.0514e-05,1.153e-05,0.0,0 STARLINK-3809,1 52851U 22062X   22324.79626818  .00001153  00000-0  90514-4 0  9996,2 52851  53.2191  33.0941 0002724  24.7681 335.3442 15.08844794 24029,6917.866,95.437,541.615,537.846,0.0
52851.0,STARLINK-3809,PAYLOAD,2022-11-21 11:00:29,15.08845248,0.0002806,53.2188,30.1203,28.6924,331.4222,-1.9733e-05,-6.03e-06,0.0,0 STARLINK-3809,1 52851U 22062X   22325.45867024 -.00000603  00000-0 -19733-4 0  9991,2 52851  53.2188  30.1203 0002806  28.6924 331.4222 15.08845248 24611,6917.864000000001,95.437,541.6709999999998,537.788,0.0
52851.0,STARLINK-3809,PAYLOAD,2022-11-21 18:57:24,15.08846036,0.0002743,53.2188,28.6336,24.8317,335.2807,0.00011432,1.532e-05,0.0,0 STARLINK-3809,1 52851U 22062X   22325.78986589  .00001532  00000-0  11432-3 0  9992,2 52851  53.2188  28.6336 0002743  24.8317 335.2807 15.08846036 24172,6917.861999999999,95.437,541.625,537.8290000000002,0.0
52851.0,STARLINK-3809,PAYLOAD,2022-11-22 14:02:03,15.08825754,0.0002825,53.2189,25.0656,23.4185,336.6935,-1.254e-05,-4.88e-06,0.0,0 STARLINK-3809,1 52851U 22062X   22326.58476238 -.00000488  00000-0 -12540-4 0  9999,2 52851  53.2189  25.0656 0002825  23.4185 336.6935 15.08825754 24786,6917.924,95.438,541.743,537.835,0.0
52851.0,STARLINK-3809,PAYLOAD,2022-11-22 17:12:49,15.0884311,0.00028,53.2189,24.4707,22.2746,337.8367,-0.00029913,-5.047e-05,0.0,0 STARLINK-3809,1 52851U 22062X   22326.71723675 -.00005047  00000-0 -29913-3 0  9991,2 52851  53.2189  24.4707 0002800  22.2746 337.8367 15.08843110 24800,6917.871,95.437,541.673,537.799,0.0
52851.0,STARLINK-3809,PAYLOAD,2022-11-22 18:48:12,15.08827614,0.0002788,53.2188,24.1731,24.47,335.6424,-4.0359e-05,-9.31e-06,0.0,0 STARLINK-3809,1 52851U 22062X   22326.78348262 -.00000931  00000-0 -40359-4 0  9998,2 52851  53.2188  24.1731 0002788  24.4700 335.6424 15.08827614 24320,6917.918000000002,95.438,541.712,537.855,0.0
52851.0,STARLINK-3809,PAYLOAD,2022-11-23 12:17:27,15.08836864,0.0002885,53.2182,20.9024,26.4257,333.6882,0.00015583,2.192e-05,0.0,0 STARLINK-3809,1 52851U 22062X   22327.51212055  .00002192  00000-0  15583-3 0  9999,2 52851  53.2182  20.9024 0002885  26.4257 333.6882 15.08836864 24435,6917.89,95.438,541.751,537.759,0.0
52851.0,STARLINK-3809,PAYLOAD,2022-11-23 15:28:13,15.08839013,0.0002912,53.2182,20.3079,26.7235,333.3907,0.00019647,2.84e-05,0.0,0 STARLINK-3809,1 52851U 22062X   22327.64460028  .00002840  00000-0  19647-3 0  9993,2 52851  53.2182  20.3079 0002912  26.7235 333.3907 15.08839013 24455,6917.8830000000025,95.438,541.763,537.734,0.0
52851.0,STARLINK-3809,PAYLOAD,2022-11-23 20:14:22,15.08839873,0.0002929,53.2182,19.4158,26.6328,333.4814,0.00018821,2.708e-05,0.0,0 STARLINK-3809,1 52851U 22062X   22327.84332013  .00002708  00000-0  18821-3 0  9993,2 52851  53.2182  19.4158 0002929  26.6328 333.4814 15.08839873 24971,6917.880999999999,95.438,541.7719999999998,537.72,0.0
52851.0,STARLINK-3809,PAYLOAD,2022-11-24 10:32:51,15.0883494,0.0002889,53.2182,16.7396,28.7511,331.3640000000001,0.00010035,1.309e-05,0.0,0 STARLINK-3809,1 52851U 22062X   22328.43948328  .00001309  00000-0  10035-3 0  9996,2 52851  53.2182  16.7396 0002889  28.7511 331.3640 15.08834940 24577,6917.896,95.438,541.759,537.762,0.0
52851.0,STARLINK-3809,PAYLOAD,2022-11-24 13:43:37,15.08836348,0.0002914,53.2182,16.1446,26.7739,333.3403,0.00013357,1.838e-05,0.0,0 STARLINK-3809,1 52851U 22062X   22328.57196294  .00001838  00000-0  13357-3 0  9995,2 52851  53.2182  16.1446 0002914  26.7739 333.3403 15.08836348 24591,6917.892,95.438,541.7719999999998,537.741,0.0
52851.0,STARLINK-3809,PAYLOAD,2022-11-24 21:40:33,15.0883815,0.0002983,53.2182,14.6579,26.976,333.1387,0.00020987,3.053e-05,0.0,0 STARLINK-3809,1 52851U 22062X   22328.90316322  .00003053  00000-0  20987-3 0  9996,2 52851  53.2182  14.6579 0002983  26.9760 333.1387 15.08838150 25136,6917.886,95.438,541.815,537.687,0.0
52851.0,STARLINK-3809,PAYLOAD,2022-11-25 11:59:01,15.08844058,0.0003089,53.2179,11.982,27.7238,332.3918,0.00017519,2.501e-05,0.0,0 STARLINK-3809,1 52851U 22062X   22329.49932130  .00002501  00000-0  17519-3 0  9996,2 52851  53.2179  11.9820 0003089  27.7238 332.3918 15.08844058 24738,6917.868,95.437,541.87,537.596,0.0
52851.0,STARLINK-3809,PAYLOAD,2022-11-25 15:09:47,15.08842976,0.0003094,53.2176,11.3874,27.5814,332.5342,0.00018385,2.639e-05,0.0,0 STARLINK-3809,1 52851U 22062X   22329.63180128  .00002639  00000-0  18385-3 0  9998,2 52851  53.2176  11.3874 0003094  27.5814 332.5342 15.08842976 24754,6917.871,95.437,541.877,537.596,0.0
52851.0,STARLINK-3809,PAYLOAD,2022-11-26 02:17:29,15.08848167,0.0003058,53.2176,9.3055,28.7218,331.3942,0.00031298,4.697e-05,0.0,0 STARLINK-3809,1 52851U 22062X   22330.09547904  .00004697  00000-0  31298-3 0  9993,2 52851  53.2176   9.3055 0003058  28.7218 331.3942 15.08848167 25317,6917.855,95.437,541.836,537.605,0.0
52851.0,STARLINK-3809,PAYLOAD,2022-11-26 10:14:24,15.08853023,0.0003083,53.2177,7.8187,29.3969,330.7196,0.0003299,4.968e-05,0.0,0 STARLINK-3809,1 52851U 22062X   22330.42667570  .00004968  00000-0  32990-3 0  9993,2 52851  53.2177   7.8187 0003083  29.3969 330.7196 15.08853023 24876,6917.840999999999,95.437,541.8380000000002,537.573,0.0
52851.0,STARLINK-3809,PAYLOAD,2022-11-26 19:46:43,15.08858943,0.0003142,53.2177,6.0345,29.0087,331.1079,0.00037879,5.748e-05,0.0,0 STARLINK-3809,1 52851U 22062X   22330.82411060  .00005748  00000-0  37879-3 0  9996,2 52851  53.2177   6.0345 0003142  29.0087 331.1079 15.08858943 24935,6917.821999999999,95.436,541.861,537.514,0.0
52851.0,STARLINK-3809,PAYLOAD,2022-11-27 11:40:34,15.08840994,0.0003056,53.2177,3.0608,28.0529,332.0627,-5.4662e-05,-1.159e-05,0.0,0 STARLINK-3809,1 52851U 22062X   22331.48651370 -.00001159  00000-0 -54662-4 0  9993,2 52851  53.2177   3.0608 0003056  28.0529 332.0627 15.08840994 25520,6917.877,95.437,541.856,537.628,0.0
52851.0,STARLINK-3809,PAYLOAD,2022-11-27 19:37:30,15.088442,0.000303,53.2175,1.5734,28.2209,331.8947,7.667600000000001e-05,9.32e-06,0.0,0 STARLINK-3809,1 52851U 22062X   22331.81771309  .00000932  00000-0  76676-4 0  9990,2 52851  53.2175   1.5734 0003030  28.2209 331.8947 15.08844200 25087,6917.868,95.437,541.8290000000002,537.636,0.0
52851.0,STARLINK-3809,PAYLOAD,2022-11-28 13:06:45,15.08841059,0.0003081,53.218,358.3026,29.0181,331.0982,9.6481e-06,-1.35e-06,0.0,0 STARLINK-3809,1 52851U 22062X   22332.54635757 -.00000135  00000-0  96481-5 0  9990,2 52851  53.2180 358.3026 0003081  29.0181 331.0982 15.08841059 25680,6917.877,95.437,541.874,537.611,0.0
52851.0,STARLINK-3809,PAYLOAD,2022-11-29 08:11:23,15.08834504,0.0003106,53.2179,354.7341,28.55,331.5662,8.7495e-05,1.104e-05,0.0,0 STARLINK-3809,1 52851U 22062X   22333.34124228  .00001104  00000-0  87495-4 0  9995,2 52851  53.2179 354.7341 0003106  28.5500 331.5662 15.08834504 25806,6917.897,95.438,541.911,537.613,0.0
52851.0,STARLINK-3809,PAYLOAD,2022-11-29 11:22:09,15.08834719,0.0003142,53.2182,354.1398,28.2229,331.8932,8.7396e-05,1.102e-05,0.0,0 STARLINK-3809,1 52851U 22062X   22333.47372283  .00001102  00000-0  87396-4 0  9993,2 52851  53.2182 354.1398 0003142  28.2229 331.8932 15.08834719 25330,6917.897,95.438,541.935,537.5880000000002,0.0
52851.0,STARLINK-3809,PAYLOAD,2022-11-29 12:57:32,15.08835754,0.0003114,53.2187,353.8423,28.0585,332.0575,7.651e-05,9.29e-06,0.0,0 STARLINK-3809,1 52851U 22062X   22333.53996148  .00000929  00000-0  76510-4 0  9994,2 52851  53.2187 353.8423 0003114  28.0585 332.0575 15.08835754 25349,6917.893,95.438,541.913,537.604,0.0
52851.0,STARLINK-3809,PAYLOAD,2022-11-30 12:48:20,15.08834897,0.0003114,53.2186,349.3817,28.0509,332.065,6.3695e-05,7.25e-06,0.0,0 STARLINK-3809,1 52851U 22062X   22334.53356565  .00000725  00000-0  63695-4 0  9992,2 52851  53.2186 349.3817 0003114  28.0509 332.0650 15.08834897 25498,6917.896,95.438,541.915,537.607,0.0
